NORAD_CAT_ID,OBJECT_NAME,OBJECT_TYPE,EPOCH,MEAN_MOTION,ECCENTRICITY,INCLINATION,RA_OF_ASC_NODE,ARG_OF_PERICENTER,MEAN_ANOMALY,BSTAR,MEAN_MOTION_DOT,MEAN_MOTION_DDOT,TLE_LINE0,TLE_LINE1,TLE_LINE2,SEMIMAJOR_AXIS,PERIOD,APOGEE,PERIGEE,DECAYED
55296.0,STARLINK-5285,PAYLOAD,2023-02-04 10:00:00,15.75378737,0.0003755,70.0,24.2917,257.3175,24.0201,-0.0060292,-0.00830247,0.0,0 STARLINK-5285,1 55296U 23010AD  23035.41667824 -.00830247  00000-0 -60292-2 0  9991,2 55296  70.0000  24.2917 0003755 257.3175  24.0201 15.75378737  3006,6721.691,91.407,346.08,341.032,0.0
55296.0,STARLINK-5285,PAYLOAD,2023-02-04 14:00:01,15.75098077,0.0003549,69.9993,23.8185,264.0477,242.1294,-0.0063184,-0.0085665,0.0,0 STARLINK-5285,1 55296U 23010AD  23035.58334491 -.00856650  00000-0 -63184-2 0  9999,2 55296  69.9993  23.8185 0003549 264.0477 242.1294 15.75098077  1309,6722.489,91.423,346.74,341.968,0.0
55296.0,STARLINK-5285,PAYLOAD,2023-02-04 22:00:00,15.74483246,0.0003503,70.0001,22.8754,262.6447,332.6964,-0.0062939,-0.00833061,0.0,0 STARLINK-5285,1 55296U 23010AD  23035.91667824 -.00833061  00000-0 -62939-2 0  9993,2 55296  70.0001  22.8754 0003503 262.6447 332.6964 15.74483246  1308,6724.239,91.459,348.46,343.749,0.0
55296.0,STARLINK-5285,PAYLOAD,2023-02-05 06:00:00,15.73907922,0.0007234,69.9998,21.9321,266.1981,57.5734,-0.006741,-0.00868658,0.0,0 STARLINK-5285,1 55296U 23010AD  23036.25001157 -.00868658  00000-0 -67410-2 0  9991,2 55296  69.9998  21.9321 0007234 266.1981  57.5734 15.73907922  3139,6725.878,91.492,352.608,342.877,0.0
55296.0,STARLINK-5285,PAYLOAD,2023-02-05 14:00:01,15.73300993,0.0003593,69.9953,20.9812,270.2217,141.3826,-0.0069107,-0.0086574,0.0,0 STARLINK-5285,1 55296U 23010AD  23036.58335648 -.00865740  00000-0 -69107-2 0  9996,2 55296  69.9953  20.9812 0003593 270.2217 141.3826 15.73300993  1302,6727.607,91.527,351.889,347.055,0.0
55296.0,STARLINK-5285,PAYLOAD,2023-02-05 16:00:00,15.73120233,0.0003481,69.9956,20.7457,269.0816,254.2851,-0.0064985,-0.00812885,0.0,0 STARLINK-5285,1 55296U 23010AD  23036.66667824 -.00812885  00000-0 -64985-2 0  9990,2 55296  69.9956  20.7457 0003481 269.0816 254.2851 15.73120233  3205,6728.123,91.538,352.33,347.646,0.0
55296.0,STARLINK-5285,PAYLOAD,2023-02-05 22:00:00,15.72713594,0.0003224,69.9959,20.0403,265.9857,232.5426,-0.0069567,-0.00851139,0.0,0 STARLINK-5285,1 55296U 23010AD  23036.91667824 -.00851139  00000-0 -69567-2 0  9994,2 55296  69.9959  20.0403 0003224 265.9857 232.5426 15.72713594  1300,6729.282,91.561,353.317,348.978,0.0
55296.0,STARLINK-5285,PAYLOAD,2023-02-06 14:00:01,15.71514221,0.000361,69.9958,18.1598,268.9593,41.4416,-0.0075606,-0.00876463,0.0,0 STARLINK-5285,1 55296U 23010AD  23037.58334491 -.00876463  00000-0 -75606-2 0  9997,2 55296  69.9958  18.1598 0003610 268.9593  41.4416 15.71514221  3348,6732.706,91.631,357.001,352.14,0.0
55296.0,STARLINK-5285,PAYLOAD,2023-02-06 22:00:00,15.7091575,0.0003639,69.9961,17.2212,265.1906,130.0569,-0.007538,-0.00854337,0.0,0 STARLINK-5285,1 55296U 23010AD  23037.91667824 -.00854337  00000-0 -75380-2 0  9998,2 55296  69.9961  17.2212 0003639 265.1906 130.0569 15.70915750  1302,6734.416,91.666,358.731,353.83,0.0
55296.0,STARLINK-5285,PAYLOAD,2023-02-07 08:00:01,15.69951434,0.0003608,69.9973,16.0484,270.8804,319.4631,-0.0002915,-0.00035159,0.0,0 STARLINK-5285,1 55296U 23010AD  23038.33334491 -.00035159  00000-0 -29150-3 0  9994,2 55296  69.9973  16.0484 0003608 270.8804 319.4631 15.69951434  3468,6737.173,91.723,361.469,356.607,0.0
55296.0,STARLINK-5285,PAYLOAD,2023-02-07 14:00:01,15.69957057,0.0003539,69.998,15.3451,266.6424,296.2131,-0.00065498,-0.00078349,0.0,0 STARLINK-5285,1 55296U 23010AD  23038.58334491 -.00078349  00000-0 -65498-3 0  9994,2 55296  69.9980  15.3451 0003539 266.6424 296.2131 15.69957057  1301,6737.157,91.722,361.406,356.638,0.0
55296.0,STARLINK-5285,PAYLOAD,2023-02-07 22:00:00,15.69938386,0.0003595,69.9997,14.4078,260.7236,25.4663,-4.8094e-05,-5.995e-05,0.0,0 STARLINK-5285,1 55296U 23010AD  23038.91667824 -.00005995  00000-0 -48094-4 0  9991,2 55296  69.9997  14.4078 0003595 260.7236  25.4663 15.69938386  1308,6737.21,91.723,361.497,356.653,0.0
55296.0,STARLINK-5285,PAYLOAD,2023-02-08 08:00:01,15.69871925,0.0003407,70.0005,13.2361,272.3661,208.0236,0.00077057,0.00093277,0.0,0 STARLINK-5285,1 55296U 23010AD  23039.33334491  .00093277  00000-0  77057-3 0  9997,2 55296  70.0005  13.2361 0003407 272.3661 208.0236 15.69871925  3623,6737.4,91.727,361.561,356.97,0.0
55296.0,STARLINK-5285,PAYLOAD,2023-02-08 14:00:01,15.69930361,0.0003376,70.0002,12.5333,272.8111,180.0466,-0.00011226,-0.00013693,0.0,0 STARLINK-5285,1 55296U 23010AD  23039.58334491 -.00013693  00000-0 -11226-3 0  9996,2 55296  70.0002  12.5333 0003376 272.8111 180.0466 15.69930361  1308,6737.233,91.724,361.373,356.824,0.0
55296.0,STARLINK-5285,PAYLOAD,2023-02-08 22:00:00,15.69955324,0.0003385,70.0006,11.5964,269.9647,266.2231,-0.00021116,-0.00025559,0.0,0 STARLINK-5285,1 55296U 23010AD  23039.91667824 -.00025559  00000-0 -21116-3 0  9995,2 55296  70.0006  11.5964 0003385 269.9647 266.2231 15.69955324  3712,6737.162,91.722,361.307,356.746,0.0
55296.0,STARLINK-5285,PAYLOAD,2023-02-09 12:00:00,15.69971731,0.0003498,69.9999,9.9561,275.9971,316.0656,-0.0011767,-0.00139656,0.0,0 STARLINK-5285,1 55296U 23010AD  23040.50001157 -.00139656  00000-0 -11767-2 0  9997,2 55296  69.9999   9.9561 0003498 275.9971 316.0656 15.69971731  1304,6737.115,91.721,361.337,356.623,0.0
55296.0,STARLINK-5285,PAYLOAD,2023-02-09 22:00:00,15.69907275,0.0003575,70.0004,8.7845,265.3976,160.8668,-0.00010563,-0.00012886,0.0,0 STARLINK-5285,1 55296U 23010AD  23040.91667824 -.00012886  00000-0 -10563-3 0  9990,2 55296  70.0004   8.7845 0003575 265.3976 160.8668 15.69907275  3863,6737.299,91.725,361.573,356.756,0.0
55296.0,STARLINK-5285,PAYLOAD,2023-02-10 04:00:00,15.6987849,0.0003614,70.0005,8.0817,269.7113,129.0452,0.00033971,0.00040758,0.0,0 STARLINK-5285,1 55296U 23010AD  23041.16667824  .00040758  00000-0  33971-3 0  9993,2 55296  70.0005   8.0817 0003614 269.7113 129.0452 15.69878490  1302,6737.382,91.727,361.682,356.812,0.0
55296.0,STARLINK-5285,PAYLOAD,2023-02-10 18:00:00,15.69810956,0.0003651,70.0004,6.4418,254.3878,200.2096,0.0015384,0.00188098,0.0,0 STARLINK-5285,1 55296U 23010AD  23041.75001157  .00188098  00000-0  15384-2 0  9996,2 55296  70.0004   6.4418 0003651 254.3878 200.2096 15.69810956  3995,6737.575,91.731,361.9,356.98,0.0
55296.0,STARLINK-5285,PAYLOAD,2023-02-10 22:00:00,15.69876519,0.0003672,70.0007,5.9735,253.2668,62.9211,0.00077097,0.00093348,0.0,0 STARLINK-5285,1 55296U 23010AD  23041.91667824  .00093348  00000-0  77097-3 0  9996,2 55296  70.0007   5.9735 0003672 253.2668  62.9211 15.69876519  4026,6737.387,91.727,361.726,356.778,0.0
55296.0,STARLINK-5285,PAYLOAD,2023-02-11 04:18:12,15.69913235,0.000385,70.0003,5.2352,262.6517,97.4241,0.00010557,0.00012495,0.0,0 STARLINK-5285,1 55296U 23010AD  23042.17931448  .00012495  00000-0  10557-3 0  9993,2 55296  70.0003   5.2352 0003850 262.6517  97.4241 15.69913235  4062,6737.282,91.725,361.741,356.553,0.0
55296.0,STARLINK-5285,PAYLOAD,2023-02-11 08:53:27,15.69936711,0.0003298,70.0002,4.6976,256.6305,103.4523,0.00020485,0.00024503,0.0,0 STARLINK-5285,1 55296U 23010AD  23042.37046110  .00024503  00000-0  20485-3 0  9992,2 55296  70.0002   4.6976 0003298 256.6305 103.4523 15.69936711  4098,6737.215,91.723,361.302,356.858,0.0
55296.0,STARLINK-5285,PAYLOAD,2023-02-12 00:10:58,15.6994251,0.0003331,70.0006,2.906,256.289,103.7935,0.00014433,0.0001719,0.0,0 STARLINK-5285,1 55296U 23010AD  23043.00762535  .00017190  00000-0  14433-3 0  9999,2 55296  70.0006   2.9060 0003331 256.2890 103.7935 15.69942510  4195,6737.198,91.723,361.308,356.819,0.0
55296.0,STARLINK-5285,PAYLOAD,2023-02-12 06:17:59,15.69941735,0.0003602,70.0006,2.19,253.9585,106.1214,6.8513e-05,8.039e-05,0.0,0 STARLINK-5285,1 55296U 23010AD  23043.26248927  .00008039  00000-0  68513-4 0  9992,2 55296  70.0006   2.1900 0003602 253.9585 106.1214 15.69941735  4236,6737.201,91.723,361.492,356.639,0.0
55296.0,STARLINK-5285,PAYLOAD,2023-02-13 03:42:31,15.69918389,0.0003031,70.0011,359.682,260.9802,99.105,4.7404e-05,5.489e-05,0.0,0 STARLINK-5285,1 55296U 23010AD  23044.15453334  .00005489  00000-0  47404-4 0  9993,2 55296  70.0011 359.6820 0003031 260.9802  99.1050 15.69918389  4372,6737.267,91.725,361.175,357.09,0.0
55296.0,STARLINK-5285,PAYLOAD,2023-02-13 14:24:47,15.69927267,0.0002172,70.0028,358.4272,260.1467,99.9483,7.7804e-05,9.153e-05,0.0,0 STARLINK-5285,1 55296U 23010AD  23044.60055087  .00009153  00000-0  77804-4 0  9995,2 55296  70.0028 358.4272 0002172 260.1467  99.9483 15.69927267  5635,6737.242,91.724,360.57,357.644,0.0
55296.0,STARLINK-5285,PAYLOAD,2023-02-14 19:27:57,15.69978974,0.0005449,70.0017,355.0236,213.6665,146.4186,-0.000433,-0.00052105,0.0,0 STARLINK-5285,1 55296U 23010AD  23045.81107896 -.00052105  00000-0 -43300-3 0  9995,2 55296  70.0017 355.0236 0005449 213.6665 146.4186 15.69978974  4637,6737.094,91.721,362.63,355.288,0.0
55296.0,STARLINK-5285,PAYLOAD,2023-02-15 06:10:11,15.69956178,0.0003473,69.9995,353.7703,266.269,93.8109,-0.00027454,-0.00033139,0.0,0 STARLINK-5285,1 55296U 23010AD  23046.25708254 -.00033139  00000-0 -27454-3 0  9997,2 55296  69.9995 353.7703 0003473 266.2690  93.8109 15.69956178  4700,6737.159,91.722,361.364,356.685,0.0
55296.0,STARLINK-5285,PAYLOAD,2023-02-15 21:27:50,15.69946121,0.0003573,70.0002,351.9776,258.3555,101.724,8.9162e-05,0.00010532,0.0,0 STARLINK-5285,1 55296U 23010AD  23046.89433974  .00010532  00000-0  89162-4 0  9996,2 55296  70.0002 351.9776 0003573 258.3555 101.7240 15.69946121  5999,6737.188,91.723,361.46,356.646,0.0
55296.0,STARLINK-5285,PAYLOAD,2023-02-15 22:59:35,15.69951068,0.000357,70.0002,351.7984,260.3898,99.6894,0.00010702,0.0001269,0.0,0 STARLINK-5285,1 55296U 23010AD  23046.95805475  .00012690  00000-0  10702-3 0  9992,2 55296  70.0002 351.7984 0003570 260.3898  99.6894 15.69951068  4814,6737.174,91.723,361.444,356.634,0.0
